NORAD_CAT_ID,OBJECT_NAME,OBJECT_TYPE,EPOCH,MEAN_MOTION,ECCENTRICITY,INCLINATION,RA_OF_ASC_NODE,ARG_OF_PERICENTER,MEAN_ANOMALY,BSTAR,MEAN_MOTION_DOT,MEAN_MOTION_DDOT,TLE_LINE0,TLE_LINE1,TLE_LINE2,SEMIMAJOR_AXIS,PERIOD,APOGEE,PERIGEE,DECAYED
54174.0,STARLINK-5248,PAYLOAD,2023-03-11 20:16:42,15.73132217,0.0002148,53.213,196.036,56.717,303.4055,-0.00015323,-0.00022009,0.0,0 STARLINK-5248,1 54174U 22141T   23070.84493127 -.00022009  00000-0 -15323-3 0  9993,2 54174  53.2130 196.0360 0002148  56.7170 303.4055 15.73132217 21255,6728.088,91.537,351.399,348.508,0.0
54174.0,STARLINK-5248,PAYLOAD,2023-03-11 21:48:09,15.73176277,0.000182,53.2132,195.7223,60.5416,299.5785,-4.9305e-05,-7.527e-05,0.0,0 STARLINK-5248,1 54174U 22141T   23070.90844435 -.00007527  00000-0 -49305-4 0  9998,2 54174  53.2132 195.7223 0001820  60.5416 299.5785 15.73176277 21274,6727.963,91.535,351.052,348.603,0.0
54174.0,STARLINK-5248,PAYLOAD,2023-03-12 11:31:27,15.73215124,0.000135,53.2131,192.8925,108.469,251.6477,2.1267e-05,2.367e-05,0.0,0 STARLINK-5248,1 54174U 22141T   23071.48017897  .00002367  00000-0  21267-4 0  9998,2 54174  53.2131 192.8925 0001350 108.4690 251.6477 15.73215124 21355,6727.852,91.532,350.625,348.809,0.0
54174.0,STARLINK-5248,PAYLOAD,2023-03-12 22:11:49,15.73204903,0.000129,53.2132,190.6918,101.4928,258.6237,-1.9307e-06,-8.91e-06,0.0,0 STARLINK-5248,1 54174U 22141T   23071.92487527 -.00000891  00000-0 -19307-5 0  9993,2 54174  53.2132 190.6918 0001290 101.4928 258.6237 15.73204903 21437,6727.881,91.533,350.614,348.878,0.0
54174.0,STARLINK-5248,PAYLOAD,2023-03-13 13:26:37,15.73207357,0.0001302,53.2131,187.5473,103.4309,256.6857,8.4393e-06,5.65e-06,0.0,0 STARLINK-5248,1 54174U 22141T   23072.56015387  .00000565  00000-0  84393-5 0  9998,2 54174  53.2131 187.5473 0001302 103.4309 256.6857 15.73207357 21539,6727.874,91.533,350.615,348.863,0.0
54174.0,STARLINK-5248,PAYLOAD,2023-03-13 16:29:36,15.73155761,0.0001085,53.2132,186.9193,106.9352,253.1787,-0.00011033,-0.00016044,0.0,0 STARLINK-5248,1 54174U 22141T   23072.68722687 -.00016044  00000-0 -11033-3 0  9999,2 54174  53.2132 186.9193 0001085 106.9352 253.1787 15.73155761 21542,6728.021,91.536,350.616,349.156,0.0
54174.0,STARLINK-5248,PAYLOAD,2023-03-14 13:50:17,15.73223344,0.0001138,53.2135,182.5178,120.2789,239.8344,2.0003e-05,2.191e-05,0.0,0 STARLINK-5248,1 54174U 22141T   23073.57659068  .00002191  00000-0  20003-4 0  9994,2 54174  53.2135 182.5178 0001138 120.2789 239.8344 15.73223344 21680,6727.829,91.532,350.459,348.928,0.0
54174.0,STARLINK-5248,PAYLOAD,2023-03-15 03:33:37,15.73196815,0.0001043,53.214,179.6885,118.2739,241.8386,7.3607e-05,9.721e-05,0.0,0 STARLINK-5248,1 54174U 22141T   23074.14835624  .00009721  00000-0  73607-4 0  9996,2 54174  53.2140 179.6885 0001043 118.2739 241.8386 15.73196815 21776,6727.904,91.533,350.471,349.068,0.0
54174.0,STARLINK-5248,PAYLOAD,2023-03-15 12:42:30,15.73209283,0.0001232,53.2139,177.8017,117.4749,242.6396,3.852e-05,4.791e-05,0.0,0 STARLINK-5248,1 54174U 22141T   23074.52951533  .00004791  00000-0  38520-4 0  9993,2 54174  53.2139 177.8017 0001232 117.4749 242.6396 15.73209283 21834,6727.869,91.533,350.563,348.905,0.0
54174.0,STARLINK-5248,PAYLOAD,2023-03-16 03:57:18,15.73188059,9.04e-05,53.2126,174.6556,90.6752,269.4372,-2.6127e-05,-4.282e-05,0.0,0 STARLINK-5248,1 54174U 22141T   23075.16480301 -.00004282  00000-0 -26127-4 0  9991,2 54174  53.2126 174.6556 0000904  90.6752 269.4372 15.73188059 21933,6727.929,91.534,350.402,349.186,0.0
54174.0,STARLINK-5248,PAYLOAD,2023-03-16 11:34:41,15.73220869,0.0001125,53.2136,173.0857,111.3057,248.8083,1.4617e-05,1.434e-05,0.0,0 STARLINK-5248,1 54174U 22141T   23075.48242761  .00001434  00000-0  14617-4 0  9997,2 54174  53.2136 173.0857 0001125 111.3057 248.8083 15.73220869 21987,6727.836,91.532,350.458,348.944,0.0
54174.0,STARLINK-5248,PAYLOAD,2023-03-17 04:20:59,15.7320957,0.00011,53.2135,169.6276,94.0942,266.0203,3.652e-05,4.51e-05,0.0,0 STARLINK-5248,1 54174U 22141T   23076.18124339  .00004510  00000-0  36520-4 0  9990,2 54174  53.2135 169.6276 0001100  94.0942 266.0203 15.73209570 22090,6727.868,91.533,350.473,348.993,0.0
54174.0,STARLINK-5248,PAYLOAD,2023-03-17 10:26:54,15.73201184,7.43e-05,53.2139,168.3703,107.5553,252.5548,1.7208e-05,1.797e-05,0.0,0 STARLINK-5248,1 54174U 22141T   23076.43535716  .00001797  00000-0  17208-4 0  9999,2 54174  53.2139 168.3703 0000743 107.5553 252.5548 15.73201184 22135,6727.892,91.533,350.257,349.257,0.0
54174.0,STARLINK-5248,PAYLOAD,2023-03-17 15:01:21,15.73205727,0.0001047,53.2134,167.4237,111.2168,248.8964,2.2396e-05,2.525e-05,0.0,0 STARLINK-5248,1 54174U 22141T   23076.62593845  .00002525  00000-0  22396-4 0  9991,2 54174  53.2134 167.4237 0001047 111.2168 248.8964 15.73205727 22175,6727.879,91.533,350.448,349.039,0.0
54174.0,STARLINK-5248,PAYLOAD,2023-03-18 12:22:04,15.73211787,0.0001123,53.2138,163.0253,102.7416,257.373,3.754e-05,4.654e-05,0.0,0 STARLINK-5248,1 54174U 22141T   23077.51532708  .00004654  00000-0  37540-4 0  9993,2 54174  53.2138 163.0253 0001123 102.7416 257.3730 15.73211787 22309,6727.862,91.532,350.482,348.971,0.0
54174.0,STARLINK-5248,PAYLOAD,2023-03-18 15:25:02,15.73207853,9.15e-05,53.2138,162.3989,85.5659,274.5466,2.0191e-05,2.216e-05,0.0,0 STARLINK-5248,1 54174U 22141T   23077.64238512  .00002216  00000-0  20191-4 0  9999,2 54174  53.2138 162.3989 0000915  85.5659 274.5466 15.73207853 22331,6727.873,91.533,350.353,349.122,0.0
54174.0,STARLINK-5248,PAYLOAD,2023-03-19 09:42:47,15.73203599,0.0001254,53.2132,158.6259,68.3723,291.7431,-1.0501e-05,-2.093e-05,0.0,0 STARLINK-5248,1 54174U 22141T   23078.40472154 -.00002093  00000-0 -10501-4 0  9995,2 54174  53.2132 158.6259 0001254  68.3723 291.7431 15.73203599 22449,6727.885,91.533,350.594,348.906,0.0
54174.0,STARLINK-5248,PAYLOAD,2023-03-19 11:14:16,15.73204349,0.0001238,53.2134,158.3105,90.7234,269.3928,-7.0869e-06,-1.614e-05,0.0,0 STARLINK-5248,1 54174U 22141T   23078.46824853 -.00001614  00000-0 -70869-5 0  9990,2 54174  53.2134 158.3105 0001238  90.7234 269.3928 15.73204349 22464,6727.883,91.533,350.581,348.915,0.0
54174.0,STARLINK-5248,PAYLOAD,2023-03-19 14:17:14,15.7320321,0.0001255,53.2133,157.6822,79.7957,280.3205,-1.7184e-05,-3.031e-05,0.0,0 STARLINK-5248,1 54174U 22141T   23078.59530506 -.00003031  00000-0 -17184-4 0  9998,2 54174  53.2133 157.6822 0001255  79.7957 280.3205 15.73203210 22488,6727.886,91.533,350.595,348.907,0.0
54174.0,STARLINK-5248,PAYLOAD,2023-03-20 11:37:57,15.73213614,0.0001123,53.2146,153.2803,86.0991,274.0157,1.4602e-05,1.431e-05,0.0,0 STARLINK-5248,1 54174U 22141T   23079.48468847  .00001431  00000-0  14602-4 0  9997,2 54174  53.2146 153.2803 0001123  86.0991 274.0157 15.73213614 22616,6727.856,91.532,350.477,348.966,0.0
54174.0,STARLINK-5248,PAYLOAD,2023-03-21 10:30:09,15.73226185,0.0001576,53.2134,148.5648,56.7041,303.4129,5.3376e-05,6.885e-05,0.0,0 STARLINK-5248,1 54174U 22141T   23080.43760774  .00006885  00000-0  53376-4 0  9997,2 54174  53.2134 148.5648 0001576  56.7041 303.4129 15.73226185 22779,6727.821,91.532,350.746,348.625,0.0
54174.0,STARLINK-5248,PAYLOAD,2023-03-21 21:10:31,15.73203406,0.0001415,53.2135,146.3636,66.4218,293.695,4.4595e-06,6e-08,0.0,0 STARLINK-5248,1 54174U 22141T   23080.88230933  .00000006  00000-0  44595-5 0  9998,2 54174  53.2135 146.3636 0001415  66.4218 293.6950 15.73203406 22840,6727.885,91.533,350.702,348.798,0.0
54174.0,STARLINK-5248,PAYLOAD,2023-03-22 10:53:50,15.73214857,0.0001244,53.2126,143.5287,58.1505,301.9636,2.324e-05,2.645e-05,0.0,0 STARLINK-5248,1 54174U 22141T   23081.45405765  .00002645  00000-0  23240-4 0  9993,2 54174  53.2126 143.5287 0001244  58.1505 301.9636 15.73214857 22923,6727.853,91.532,350.555,348.881,0.0
54174.0,STARLINK-5248,PAYLOAD,2023-03-22 23:05:41,15.73189936,0.0001047,53.2135,141.017,104.7331,255.3805,-6.3564e-06,-1.511e-05,0.0,0 STARLINK-5248,1 54174U 22141T   23081.96228988 -.00001511  00000-0 -63564-5 0  9996,2 54174  53.2135 141.0170 0001047 104.7331 255.3805 15.73189936 23002,6727.924,91.534,350.493,349.084,0.0
54174.0,STARLINK-5248,PAYLOAD,2023-03-23 09:46:02,15.73226212,0.0002683,53.2136,138.8154,33.0832,327.0355,1.4132e-05,1.364e-05,0.0,0 STARLINK-5248,1 54174U 22141T   23082.40697427  .00001364  00000-0  14132-4 0  9994,2 54174  53.2136 138.8154 0002683  33.0832 327.0355 15.73226212 23079,6727.82,91.532,351.491,347.88,0.0
54174.0,STARLINK-5248,PAYLOAD,2023-03-24 04:03:46,15.73242658,0.0002115,53.2142,135.0414,139.7745,220.3432,6.8353e-05,9e-05,0.0,0 STARLINK-5248,1 54174U 22141T   23083.16929244  .00009000  00000-0  68353-4 0  9992,2 54174  53.2142 135.0414 0002115 139.7745 220.3432 15.73242658 23197,6727.774,91.531,351.061,348.216,0.0
54174.0,STARLINK-5248,PAYLOAD,2023-03-24 10:09:42,15.73223678,0.0001138,53.2141,133.7926,120.4072,239.7061,3.6199e-05,4.468e-05,0.0,0 STARLINK-5248,1 54174U 22141T   23083.42340933  .00004468  00000-0  36199-4 0  9999,2 54174  53.2141 133.7926 0001138 120.4072 239.7061 15.73223678 23231,6727.828,91.532,350.458,348.927,0.0
54174.0,STARLINK-5248,PAYLOAD,2023-03-24 22:21:35,15.73180359,0.000321,53.2139,131.2832,34.1656,325.957,-4.4032e-05,-6.794e-05,0.0,0 STARLINK-5248,1 54174U 22141T   23083.93166151 -.00006794  00000-0 -44032-4 0  9994,2 54174  53.2139 131.2832 0003210  34.1656 325.9570 15.73180359 23319,6727.951,91.534,351.976,347.656,0.0
54174.0,STARLINK-5248,PAYLOAD,2023-03-25 09:01:56,15.73193237,0.0001161,53.2139,129.071,82.9685,277.1467,-7.1868e-06,-1.628e-05,0.0,0 STARLINK-5248,1 54174U 22141T   23084.37635259 -.00001628  00000-0 -71868-5 0  9992,2 54174  53.2139 129.0710 0001161  82.9685 277.1467 15.73193237 23384,6727.914,91.534,350.561,348.998,0.0
54174.0,STARLINK-5248,PAYLOAD,2023-03-25 19:42:17,15.7322938,9.85e-05,53.2143,126.8749,94.1517,265.9616,6.4616e-05,8.469e-05,0.0,0 STARLINK-5248,1 54174U 22141T   23084.82103014  .00008469  00000-0  64616-4 0  9991,2 54174  53.2143 126.8749 0000985  94.1517 265.9616 15.73229380 23456,6727.811,91.531,350.339,349.014,0.0
